{
    "links": {
        "self": "http://www.neowsapp.com/rest/v1/neo/3328630?api_key=iIulBulltgU6a56xZRHN4H3l9WmuAYTsLGpBGhQ2"
    },
    "id": "3328630",
    "neo_reference_id": "3328630",
    "name": "(2006 FH)",
    "designation": "2006 FH",
    "nasa_jpl_url": "http://ssd.jpl.nasa.gov/sbdb.cgi?sstr=3328630",
    "absolute_magnitude_h": 24.3,
    "estimated_diameter": {
        "kilometers": {
            "estimated_diameter_min": 0.0366906138,
            "estimated_diameter_max": 0.0820427065
        },
        "meters": {
            "estimated_diameter_min": 36.6906137531,
            "estimated_diameter_max": 82.0427064882
        },
        "miles": {
            "estimated_diameter_min": 0.0227984834,
            "estimated_diameter_max": 0.0509789586
        },
        "feet": {
            "estimated_diameter_min": 120.3760332259,
            "estimated_diameter_max": 269.1689931548
        }
    },
    "is_potentially_hazardous_asteroid": false,
    "close_approach_data": [
        {
            "close_approach_date": "2003-03-16",
            "close_approach_date_full": "2003-Mar-16 00:20",
            "epoch_date_close_approach": 1047774000000,
            "relative_velocity": {
                "kilometers_per_second": "13.6951886462",
                "kilometers_per_hour": "49302.6791264064",
                "miles_per_hour": "30634.7674827385"
            },
            "miss_distance": {
                "astronomical": "0.2517213627",
                "lunar": "97.9196100903",
                "kilometers": "37656979.693417449",
                "miles": "23398962.1571968362"
            },
            "orbiting_body": "Earth"
        },
        {
            "close_approach_date": "2006-04-15",
            "close_approach_date_full": "2006-Apr-15 11:02",
            "epoch_date_close_approach": 1145098920000,
            "relative_velocity": {
                "kilometers_per_second": "6.6830432296",
                "kilometers_per_hour": "24058.9556265251",
                "miles_per_hour": "14949.2994002705"
            },
            "miss_distance": {
                "astronomical": "0.0479645752",
                "lunar": "18.6582197528",
                "kilometers": "7175398.285374824",
                "miles": "4458585.7471636112"
            },
            "orbiting_body": "Earth"
        },
        {
            "close_approach_date": "2009-05-29",
            "close_approach_date_full": "2009-May-29 17:06",
            "epoch_date_close_approach": 1243616760000,
            "relative_velocity": {
                "kilometers_per_second": "10.9688632164",
                "kilometers_per_hour": "39487.9075791095",
                "miles_per_hour": "24536.2501288083"
            },
            "miss_distance": {
                "astronomical": "0.178216527",
                "lunar": "69.326229003",
                "kilometers": "26660812.83799749",
                "miles": "16566260.909805762"
            },
            "orbiting_body": "Earth"
        },
        {
            "close_approach_date": "2012-06-17",
            "close_approach_date_full": "2012-Jun-17 08:44",
            "epoch_date_close_approach": 1339922640000,
            "relative_velocity": {
                "kilometers_per_second": "18.3393106491",
                "kilometers_per_hour": "66021.5183367506",
                "miles_per_hour": "41023.203990966"
            },
            "miss_distance": {
                "astronomical": "0.406205457",
                "lunar": "158.013922773",
                "kilometers": "60767471.14957659",
                "miles": "37759155.657033342"
            },
            "orbiting_body": "Earth"
        }
    ],
    "orbital_data": {
        "orbit_id": "13",
        "orbit_determination_date": "2017-04-06 09:14:58",
        "first_observation_date": "2006-03-23",
        "last_observation_date": "2006-04-19",
        "data_arc_in_days": 27,
        "observations_used": 43,
        "orbit_uncertainty": "7",
        "minimum_orbit_intersection": ".0439313",
        "jupiter_tisserand_invariant": "3.574",
        "epoch_osculation": "2459000.5",
        "eccentricity": ".5057326105741892",
        "semi_major_axis": "2.097185012763316",
        "inclination": "3.480635639319694",
        "ascending_node_longitude": "180.745718364478",
        "orbital_period": "1109.31157601678",
        "perihelion_distance": "1.03657016140146",
        "perihelion_argument": "32.12735913653638",
        "aphelion_distance": "3.157799864125172",
        "perihelion_time": "2459394.338601808626",
        "mean_anomaly": "232.1892931468329",
        "mean_motion": ".3245255956785891",
        "equinox": "J2000",
        "orbit_class": {
            "orbit_class_type": "AMO",
            "orbit_class_description": "Near-Earth asteroid orbits similar to that of 1221 Amor",
            "orbit_class_range": "1.017 AU < q (perihelion) < 1.3 AU"
        }
    },
    "is_sentry_object": false
}